{
  "type": "FeatureCollection",
  "features": [
    {
      "type": "Feature",
      "properties": {
        "norad_id": 35647,
        "name": "COSMOS 2251 DEB",
        "group": "cosmos-2251-debris",
        "lat": -64.89868545252816,
        "lon": 147.75256709129474,
        "alt_km": 777.4537330790163,
        "timestamp": "2025-12-15T04:01:20.848457+00:00",
        "meta_object_name": "COSMOS 2251 DEB",
        "meta_object_id": "1993-036ANN",
        "meta_epoch": "2025-12-13T14:16:38.061408",
        "meta_mean_motion": 14.43640489,
        "meta_eccentricity": 0.00455628,
        "meta_inclination": 74.0232,
        "meta_ra_of_asc_node": 292.9744,
        "meta_arg_of_pericenter": 31.8432,
        "meta_mean_anomaly": 328.5464,
        "meta_ephemeris_type": 0,
        "meta_classification_type": "U",
        "meta_norad_cat_id": 35647,
        "meta_element_set_no": 999,
        "meta_rev_at_epoch": 67676,
        "meta_bstar": 0.0011040482,
        "meta_mean_motion_dot": 3.768e-05,
        "meta_mean_motion_ddot": 0,
        "tle_line1": "1 35647U 93036ANN 25347.59488497  .00003768  00000+0  11040-2 0  9992",
        "tle_line2": "2 35647  74.0232 292.9744 0045562  31.8432 328.5464 14.43640489676762"
      },
      "geometry": {
        "type": "Point",
        "coordinates": [
          147.75256709129474,
          -64.89868545252816
        ]
      }
    },
    {
      "type": "Feature",
      "properties": {
        "norad_id": 35650,
        "name": "COSMOS 2251 DEB",
        "group": "cosmos-2251-debris",
        "lat": 49.149737691239665,
        "lon": 33.38905757419804,
        "alt_km": 602.704630188482,
        "timestamp": "2025-12-15T04:01:20.848467+00:00",
        "meta_object_name": "COSMOS 2251 DEB",
        "meta_object_id": "1993-036ANR",
        "meta_epoch": "2025-12-14T08:25:39.461088",
        "meta_mean_motion": 14.83681914,
        "meta_eccentricity": 0.00146754,
        "meta_inclination": 74.0466,
        "meta_ra_of_asc_node": 15.6866,
        "meta_arg_of_pericenter": 62.1193,
        "meta_mean_anomaly": 310.7797,
        "meta_ephemeris_type": 0,
        "meta_classification_type": "U",
        "meta_norad_cat_id": 35650,
        "meta_element_set_no": 999,
        "meta_rev_at_epoch": 87658,
        "meta_bstar": 0.0017772304,
        "meta_mean_motion_dot": 0.0001471,
        "meta_mean_motion_ddot": 0,
        "tle_line1": "1 35650U 93036ANR 25348.35115117  .00014710  00000+0  17772-2 0  9994",
        "tle_line2": "2 35650  74.0466  15.6866 0014675  62.1193 310.7797 14.83681914876588"
      },
      "geometry": {
        "type": "Point",
        "coordinates": [
          33.38905757419804,
          49.149737691239665
        ]
      }
    },
    {
      "type": "Feature",
      "properties": {
        "norad_id": 35660,
        "name": "COSMOS 2251 DEB",
        "group": "cosmos-2251-debris",
        "lat": 51.503742589800424,
        "lon": 149.76349048622714,
        "alt_km": 730.3956227540712,
        "timestamp": "2025-12-15T04:01:20.848477+00:00",
        "meta_object_name": "COSMOS 2251 DEB",
        "meta_object_id": "1993-036APB",
        "meta_epoch": "2025-12-13T02:38:42.179424",
        "meta_mean_motion": 14.49930822,
        "meta_eccentricity": 0.00184394,
        "meta_inclination": 74.0397,
        "meta_ra_of_asc_node": 132.5343,
        "meta_arg_of_pericenter": 281.2013,
        "meta_mean_anomaly": 198.4708,
        "meta_ephemeris_type": 0,
        "meta_classification_type": "U",
        "meta_norad_cat_id": 35660,
        "meta_element_set_no": 999,
        "meta_rev_at_epoch": 65876,
        "meta_bstar": 0.00075946704,
        "meta_mean_motion_dot": 2.917e-05,
        "meta_mean_motion_ddot": 0,
        "tle_line1": "1 35660U 93036APB 25347.11021041  .00002917  00000+0  75947-3 0  9995",
        "tle_line2": "2 35660  74.0397 132.5343 0018439 281.2013 198.4708 14.49930822658766"
      },
      "geometry": {
        "type": "Point",
        "coordinates": [
          149.76349048622714,
          51.503742589800424
        ]
      }
    },
    {
      "type": "Feature",
      "properties": {
        "norad_id": 35661,
        "name": "COSMOS 2251 DEB",
        "group": "cosmos-2251-debris",
        "lat": 10.799408329011012,
        "lon": 78.02671898741578,
        "alt_km": 669.4379769187426,
        "timestamp": "2025-12-15T04:01:20.848487+00:00",
        "meta_object_name": "COSMOS 2251 DEB",
        "meta_object_id": "1993-036APC",
        "meta_epoch": "2025-12-13T00:17:15.706176",
        "meta_mean_motion": 14.86576053,
        "meta_eccentricity": 0.00878892,
        "meta_inclination": 74.0136,
        "meta_ra_of_asc_node": 79.1868,
        "meta_arg_of_pericenter": 183.3454,
        "meta_mean_anomaly": 176.7151,
        "meta_ephemeris_type": 0,
        "meta_classification_type": "U",
        "meta_norad_cat_id": 35661,
        "meta_element_set_no": 999,
        "meta_rev_at_epoch": 87872,
        "meta_bstar": 0.0013832981,
        "meta_mean_motion_dot": 0.00013144,
        "meta_mean_motion_ddot": 0,
        "tle_line1": "1 35661U 93036APC 25347.01198734  .00013144  00000+0  13833-2 0  9998",
        "tle_line2": "2 35661  74.0136  79.1868 0087889 183.3454 176.7151 14.86576053878726"
      },
      "geometry": {
        "type": "Point",
        "coordinates": [
          78.02671898741578,
          10.799408329011012
        ]
      }
    },
    {
      "type": "Feature",
      "properties": {
        "norad_id": 35663,
        "name": "COSMOS 2251 DEB",
        "group": "cosmos-2251-debris",
        "lat": 68.01999527450704,
        "lon": 165.2282638310401,
        "alt_km": 669.9327597847887,
        "timestamp": "2025-12-15T04:01:20.848497+00:00",
        "meta_object_name": "COSMOS 2251 DEB",
        "meta_object_id": "1993-036APE",
        "meta_epoch": "2025-12-13T02:32:21.539904",
        "meta_mean_motion": 14.65684168,
        "meta_eccentricity": 0.00063461,
        "meta_inclination": 74.0174,
        "meta_ra_of_asc_node": 123.959,
        "meta_arg_of_pericenter": 198.7091,
        "meta_mean_anomaly": 161.3846,
        "meta_ephemeris_type": 0,
        "meta_classification_type": "U",
        "meta_norad_cat_id": 35663,
        "meta_element_set_no": 999,
        "meta_rev_at_epoch": 73387,
        "meta_bstar": 0.0025042609,
        "meta_mean_motion_dot": 0.00013628,
        "meta_mean_motion_ddot": 0,
        "tle_line1": "1 35663U 93036APE 25347.10580486  .00013628  00000+0  25043-2 0  9992",
        "tle_line2": "2 35663  74.0174 123.9590 0006346 198.7091 161.3846 14.65684168733877"
      },
      "geometry": {
        "type": "Point",
        "coordinates": [
          165.2282638310401,
          68.01999527450704
        ]
      }
    },
    {
      "type": "Feature",
      "properties": {
        "norad_id": 35667,
        "name": "COSMOS 2251 DEB",
        "group": "cosmos-2251-debris",
        "lat": 67.1281952464618,
        "lon": 178.14858503741218,
        "alt_km": 693.5704044252689,
        "timestamp": "2025-12-15T04:01:20.848507+00:00",
        "meta_object_name": "COSMOS 2251 DEB",
        "meta_object_id": "1993-036APJ",
        "meta_epoch": "2025-12-12T16:29:07.800576",
        "meta_mean_motion": 14.60019536,
        "meta_eccentricity": 0.00197659,
        "meta_inclination": 74.055,
        "meta_ra_of_asc_node": 140.2077,
        "meta_arg_of_pericenter": 201.2373,
        "meta_mean_anomaly": 158.7974,
        "meta_ephemeris_type": 0,
        "meta_classification_type": "U",
        "meta_norad_cat_id": 35667,
        "meta_element_set_no": 999,
        "meta_rev_at_epoch": 70802,
        "meta_bstar": 0.0016940169,
        "meta_mean_motion_dot": 8.135e-05,
        "meta_mean_motion_ddot": 0,
        "tle_line1": "1 35667U 93036APJ 25346.68689584  .00008135  00000+0  16940-2 0  9990",
        "tle_line2": "2 35667  74.0550 140.2077 0019765 201.2373 158.7974 14.60019536708020"
      },
      "geometry": {
        "type": "Point",
        "coordinates": [
          178.14858503741218,
          67.1281952464618
        ]
      }
    },
    {
      "type": "Feature",
      "properties": {
        "norad_id": 35668,
        "name": "COSMOS 2251 DEB",
        "group": "cosmos-2251-debris",
        "lat": -39.39884352689835,
        "lon": 49.45525951290649,
        "alt_km": 695.222850620472,
        "timestamp": "2025-12-15T04:01:20.848517+00:00",
        "meta_object_name": "COSMOS 2251 DEB",
        "meta_object_id": "1993-036APK",
        "meta_epoch": "2025-12-10T09:50:46.743936",
        "meta_mean_motion": 14.63977041,
        "meta_eccentricity": 0.00831886,
        "meta_inclination": 74.0449,
        "meta_ra_of_asc_node": 224.9926,
        "meta_arg_of_pericenter": 330.6481,
        "meta_mean_anomaly": 29.0026,
        "meta_ephemeris_type": 0,
        "meta_classification_type": "U",
        "meta_norad_cat_id": 35668,
        "meta_element_set_no": 999,
        "meta_rev_at_epoch": 87613,
        "meta_bstar": 0.00039699898,
        "meta_mean_motion_dot": 2.154e-05,
        "meta_mean_motion_ddot": 0,
        "tle_line1": "1 35668U 93036APK 25344.41026324  .00002154  00000+0  39700-3 0  9992",
        "tle_line2": "2 35668  74.0449 224.9926 0083188 330.6481  29.0026 14.63977041876131"
      },
      "geometry": {
        "type": "Point",
        "coordinates": [
          49.45525951290649,
          -39.39884352689835
        ]
      }
    }
  ]
}